NORAD_CAT_ID,OBJECT_NAME,OBJECT_TYPE,EPOCH,MEAN_MOTION,ECCENTRICITY,INCLINATION,RA_OF_ASC_NODE,ARG_OF_PERICENTER,MEAN_ANOMALY,BSTAR,MEAN_MOTION_DOT,MEAN_MOTION_DDOT,TLE_LINE0,TLE_LINE1,TLE_LINE2,SEMIMAJOR_AXIS,PERIOD,APOGEE,PERIGEE,DECAYED
54767.0,STARLINK-5472,PAYLOAD,2024-02-03 23:23:10,15.08839257,0.0001419,53.2164,237.015,95.6459,264.4695,6.8418e-05,8.01e-06,0.0,0 STARLINK-5472,1 54767U 22175K   24034.97443166  .00000801  00000-0  68418-4 0  9999,2 54767  53.2164 237.0150 0001419  95.6459 264.4695 15.08839257 62319,6917.883,95.438,540.729,538.766,0.0
54767.0,STARLINK-5472,PAYLOAD,2024-02-04 20:03:11,15.08840733,0.0001399,53.2163,233.1487,95.7543,264.3609,6.945e-05,8.18e-06,0.0,0 STARLINK-5472,1 54767U 22175K   24035.83555186  .00000818  00000-0  69450-4 0  9996,2 54767  53.2163 233.1487 0001399  95.7543 264.3609 15.08840733 64609,6917.878,95.438,540.711,538.775,0.0
54767.0,STARLINK-5472,PAYLOAD,2024-02-05 18:18:35,15.08839104,0.0001426,53.2166,228.9856,99.813,260.3023,2.2216e-05,6.6e-07,0.0,0 STARLINK-5472,1 54767U 22175K   24036.76291488  .00000066  00000-0  22216-4 0  9995,2 54767  53.2166 228.9856 0001426  99.8130 260.3023 15.08839104 62583,6917.883,95.438,540.735,538.762,0.0
54767.0,STARLINK-5472,PAYLOAD,2024-02-06 11:47:50,15.08836541,0.0001438,53.2165,225.7135,101.8755,258.2399,8.2111e-06,-1.57e-06,0.0,0 STARLINK-5472,1 54767U 22175K   24037.49155792 -.00000157  00000-0  82111-5 0  9996,2 54767  53.2165 225.7135 0001438 101.8755 258.2399 15.08836541 64853,6917.891,95.438,540.751,538.761,0.0
54767.0,STARLINK-5472,PAYLOAD,2024-02-06 19:44:46,15.08839684,0.0001392,53.2163,224.2272,96.8592,263.2559,3.8643e-05,3.27e-06,0.0,0 STARLINK-5472,1 54767U 22175K   24037.82275530  .00000327  00000-0  38643-4 0  9994,2 54767  53.2163 224.2272 0001392  96.8592 263.2559 15.08839684 62749,6917.881,95.438,540.709,538.783,0.0
54767.0,STARLINK-5472,PAYLOAD,2024-02-07 11:38:38,15.08833178,0.0001569,53.2168,221.2605,70.1388,289.9773,-1.3653e-05,-5.05e-06,0.0,0 STARLINK-5472,1 54767U 22175K   24038.48516693 -.00000505  00000-0 -13653-4 0  9999,2 54767  53.2168 221.2605 0001569  70.1388 289.9773 15.08833178 62841,6917.901,95.438,540.852,538.681,0.0
54767.0,STARLINK-5472,PAYLOAD,2024-02-07 19:35:34,15.08826436,0.0001597,53.2165,219.7694,65.7558,294.3601,-3.5155e-05,-8.47e-06,0.0,0 STARLINK-5472,1 54767U 22175K   24038.81637444 -.00000847  00000-0 -35155-4 0  9994,2 54767  53.2165 219.7694 0001597  65.7558 294.3601 15.08826436 62892,6917.922,95.438,540.892,538.682,0.0
54767.0,STARLINK-5472,PAYLOAD,2024-02-08 11:29:25,15.08834024,0.0001589,53.2159,216.7927,93.5903,266.5271,2.7228e-05,1.45e-06,0.0,0 STARLINK-5472,1 54767U 22175K   24039.47877071  .00000145  00000-0  27228-4 0  9990,2 54767  53.2159 216.7927 0001589  93.5903 266.5271 15.08834024 62992,6917.899,95.438,540.863,538.664,0.0
54767.0,STARLINK-5472,PAYLOAD,2024-02-08 19:26:21,15.0884051,0.000148,53.2164,215.3082,77.4551,282.6606,0.00010568,1.394e-05,0.0,0 STARLINK-5472,1 54767U 22175K   24039.80996538  .00001394  00000-0  10568-3 0  9992,2 54767  53.2164 215.3082 0001480  77.4551 282.6606 15.08840510 65200,6917.879,95.438,540.768,538.72,0.0
54767.0,STARLINK-5472,PAYLOAD,2024-02-09 11:20:11,15.0884419,0.000137,53.2162,212.333,81.3638,278.7509,0.00018906,2.723e-05,0.0,0 STARLINK-5472,1 54767U 22175K   24040.47236052  .00002723  00000-0  18906-3 0  9996,2 54767  53.2162 212.3330 0001370  81.3638 278.7509 15.08844190 65306,6917.868,95.437,540.68,538.785,0.0
54767.0,STARLINK-5472,PAYLOAD,2024-02-09 17:41:44,15.08850682,0.0001425,53.2165,211.1445,79.1554,280.9598,0.00024606,3.631e-05,0.0,0 STARLINK-5472,1 54767U 22175K   24040.73731535  .00003631  00000-0  24606-3 0  9994,2 54767  53.2165 211.1445 0001425  79.1554 280.9598 15.08850682 63186,6917.848,95.437,540.699,538.727,0.0
54767.0,STARLINK-5472,PAYLOAD,2024-02-10 11:10:59,15.08847628,0.0001495,53.217,207.8747,75.9157,284.2001,0.0001005,1.312e-05,0.0,0 STARLINK-5472,1 54767U 22175K   24041.46596088  .00001312  00000-0  10050-3 0  9999,2 54767  53.2170 207.8747 0001495  75.9157 284.2001 15.08847628 63293,6917.857,95.437,540.756,538.688,0.0
54767.0,STARLINK-5472,PAYLOAD,2024-02-10 14:21:45,15.08846347,0.0001353,53.2166,207.2786,77.8276,282.2867,8.9687e-05,1.14e-05,0.0,0 STARLINK-5472,1 54767U 22175K   24041.59844119  .00001140  00000-0  89687-4 0  9996,2 54767  53.2166 207.2786 0001353  77.8276 282.2867 15.08846347 65478,6917.861,95.437,540.662,538.79,0.0
54767.0,STARLINK-5472,PAYLOAD,2024-02-10 15:57:08,15.08843103,0.0001503,53.2169,206.983,76.0396,284.0763,5.8838e-05,6.49e-06,0.0,0 STARLINK-5472,1 54767U 22175K   24041.66468414  .00000649  00000-0  58838-4 0  9991,2 54767  53.2169 206.9830 0001503  76.0396 284.0763 15.08843103 65481,6917.871,95.437,540.776,538.696,0.0
54767.0,STARLINK-5472,PAYLOAD,2024-02-11 14:12:32,15.08850512,0.000104,53.2166,202.8168,78.5667,281.5442,-6.9321e-05,-1.391e-05,0.0,0 STARLINK-5472,1 54767U 22175K   24042.59203801 -.00001391  00000-0 -69321-4 0  9997,2 54767  53.2166 202.8168 0001040  78.5667 281.5442 15.08850512 65625,6917.848,95.437,540.433,538.994,0.0
54767.0,STARLINK-5472,PAYLOAD,2024-02-11 17:23:18,15.08851281,0.0001417,53.2162,202.2217,91.9724,268.143,-3.1638e-05,-7.92e-06,0.0,0 STARLINK-5472,1 54767U 22175K   24042.72451532 -.00000792  00000-0 -31638-4 0  9992,2 54767  53.2162 202.2217 0001417  91.9724 268.1430 15.08851281 63485,6917.846,95.437,540.691,538.731,0.0
54767.0,STARLINK-5472,PAYLOAD,2024-02-12 10:52:32,15.08839617,0.0001597,53.2168,198.9527,100.6663,259.4509,7.2893e-05,8.72e-06,0.0,0 STARLINK-5472,1 54767U 22175K   24043.45315843  .00000872  00000-0  72893-4 0  9992,2 54767  53.2168 198.9527 0001597 100.6663 259.4509 15.08839617 63596,6917.882,95.438,540.851,538.642,0.0
54767.0,STARLINK-5472,PAYLOAD,2024-02-12 14:03:19,15.08839998,0.000168,53.2173,198.3579,110.6636,249.4537,7.2018e-05,8.58e-06,0.0,0 STARLINK-5472,1 54767U 22175K   24043.58563791  .00000858  00000-0  72018-4 0  9996,2 54767  53.2173 198.3579 0001680 110.6636 249.4537 15.08839998 65771,6917.88,95.438,540.908,538.583,0.0
54767.0,STARLINK-5472,PAYLOAD,2024-02-12 15:38:42,15.08841291,0.0001665,53.2176,198.0612,107.7546,252.3628,8.5249e-05,1.069e-05,0.0,0 STARLINK-5472,1 54767U 22175K   24043.65187695  .00001069  00000-0  85249-4 0  9994,2 54767  53.2176 198.0612 0001665 107.7546 252.3628 15.08841291 65783,6917.876,95.437,540.893,538.59,0.0
54767.0,STARLINK-5472,PAYLOAD,2024-02-13 02:46:25,15.08830473,0.0001595,53.2164,195.9758,79.9156,280.2016,-3.2487e-06,-3.4e-06,0.0,0 STARLINK-5472,1 54767U 22175K   24044.11556815 -.00000340  00000-0 -32487-5 0  9990,2 54767  53.2164 195.9758 0001595  79.9156 280.2016 15.08830473 63695,6917.91,95.438,540.878,538.671,0.0
54767.0,STARLINK-5472,PAYLOAD,2024-02-13 13:54:06,15.08836514,0.0001406,53.2155,193.8931,75.756,284.3589,-1.2417e-05,-4.86e-06,0.0,0 STARLINK-5472,1 54767U 22175K   24044.57924716 -.00000486  00000-0 -12417-4 0  9990,2 54767  53.2155 193.8931 0001406  75.7560 284.3589 15.08836514 65929,6917.891,95.438,540.729,538.783,0.0
54767.0,STARLINK-5472,PAYLOAD,2024-02-13 17:04:51,15.08853955,0.0001407,53.2171,193.3044,97.2394,262.8758,0.00017189,2.45e-05,0.0,0 STARLINK-5472,1 54767U 22175K   24044.71171139  .00002450  00000-0  17189-3 0  9990,2 54767  53.2171 193.3044 0001407  97.2394 262.8758 15.08853955 63781,6917.838,95.437,540.676,538.729,0.0
54767.0,STARLINK-5472,PAYLOAD,2024-02-14 02:37:11,15.08846403,0.0001414,53.2162,191.5219,110.2177,249.8967,0.00012071,1.634e-05,0.0,0 STARLINK-5472,1 54767U 22175K   24045.10915589  .00001634  00000-0  12071-3 0  9997,2 54767  53.2162 191.5219 0001414 110.2177 249.8967 15.08846403 63842,6917.861,95.437,540.704,538.748,0.0
54767.0,STARLINK-5472,PAYLOAD,2024-02-14 13:44:53,15.08838797,0.0001327,53.2166,189.44,104.6474,255.4665,5.5408e-05,5.94e-06,0.0,0 STARLINK-5472,1 54767U 22175K   24045.57284190  .00000594  00000-0  55408-4 0  9991,2 54767  53.2166 189.4400 0001327 104.6474 255.4665 15.08838797 66077,6917.884,95.438,540.667,538.831,0.0
54767.0,STARLINK-5472,PAYLOAD,2024-02-14 16:55:39,15.08855926,0.0001729,53.2176,188.8426,102.7855,257.3331,-0.00010145,-1.903e-05,0.0,0 STARLINK-5472,1 54767U 22175K   24045.70531537 -.00001903  00000-0 -10145-3 0  9991,2 54767  53.2176 188.8426 0001729 102.7855 257.3331 15.08855926 66093,6917.832,95.437,540.893,538.501,0.0
54767.0,STARLINK-5472,PAYLOAD,2024-02-15 02:27:58,15.08842558,0.0001246,53.2173,187.0588,100.2109,259.9024,-2.9336e-06,-3.35e-06,0.0,0 STARLINK-5472,1 54767U 22175K   24046.10276055 -.00000335  00000-0 -29336-5 0  9999,2 54767  53.2173 187.0588 0001246 100.2109 259.9024 15.08842558 63999,6917.873,95.437,540.6,538.876,0.0
54767.0,STARLINK-5472,PAYLOAD,2024-02-15 08:49:31,15.08833767,0.00015,53.2152,185.8708,86.0373,274.0791,4.6816e-05,4.57e-06,0.0,0 STARLINK-5472,1 54767U 22175K   24046.36772794  .00000457  00000-0  46816-4 0  9992,2 54767  53.2152 185.8708 0001500  86.0373 274.0791 15.08833767 64030,6917.899,95.438,540.802,538.727,0.0
54767.0,STARLINK-5472,PAYLOAD,2024-02-15 13:35:41,15.08829376,0.0001514,53.2157,184.9771,83.7991,276.3173,1.8522e-05,7e-08,0.0,0 STARLINK-5472,1 54767U 22175K   24046.56645260  .00000007  00000-0  18522-4 0  9995,2 54767  53.2157 184.9771 0001514  83.7991 276.3173 15.08829376 66223,6917.913,95.438,540.825,538.73,0.0
54767.0,STARLINK-5472,PAYLOAD,2024-02-15 16:46:27,15.08841949,0.0001622,53.2167,184.3825,84.52,275.5977,-0.00010024,-1.883e-05,0.0,0 STARLINK-5472,1 54767U 22175K   24046.69892953 -.00001883  00000-0 -10024-3 0  9995,2 54767  53.2167 184.3825 0001622  84.5200 275.5977 15.08841949 66245,6917.874,95.437,540.862,538.617,0.0
54767.0,STARLINK-5472,PAYLOAD,2024-02-16 15:01:50,15.08842276,0.0001365,53.2157,180.2184,91.7331,268.3817,7.7188e-05,9.41e-06,0.0,0 STARLINK-5472,1 54767U 22175K   24047.62628222  .00000941  00000-0  77188-4 0  9992,2 54767  53.2157 180.2184 0001365  91.7331 268.3817 15.08842276 66388,6917.873,95.437,540.683,538.794,0.0
